ONEWEB-0385             
1 49311U 21090AJ  24095.50976743  .00000105  00000+0  22538-3 0  9999
2 49311  87.9154  74.3676 0002266  79.8738 280.2651 13.20769530125036
ONEWEB-0386             
1 49312U 21090AK  24095.45136812  .00000138  00000+0  30712-3 0  9998
2 49312  87.9146  74.3791 0002124  77.9497 282.1875 13.20769293125035
ONEWEB-0387             
1 49313U 21090AL  24094.67803558  .00000028  00000+0  36373-4 0  9998
2 49313  87.9152  74.5910 0002328  88.3791 271.7609 13.20771035123626
ONEWEB-0388             
1 49314U 21090AM  24095.44657324 -.00001005  00000+0 -25443-2 0  9995
2 49314  87.9098 104.9540 0001920  85.2639 274.8713 13.19714933121694
ONEWEB-0389             
1 50469U 21132A   24095.49040820  .00000054  00000+0  10598-3 0  9994
2 50469  87.9237 165.7824 0002568 102.3895 257.7524 13.17648620113537
ONEWEB-0390             
1 50470U 21132B   24095.49198948  .00000108  00000+0  24570-3 0  9996
2 50470  87.9236 165.7900 0002295 110.5937 249.5441 13.17649786113539
ONEWEB-0391             
1 50471U 21132C   24094.88608301  .00000050  00000+0  95357-4 0  9996
2 50471  87.9246 165.8866 0002503  97.6936 262.4480 13.17649567112161
ONEWEB-0392             
1 50472U 21132D   24094.91615048  .00000017  00000+0  10227-4 0  9993
2 50472  87.9232 165.8921 0002458 102.7318 257.4089 13.17652802112200
